[{"OBJECT_NAME":"SDA_1681","OBJECT_ID":"2025-230T","EPOCH":"2026-03-09T23:10:51.790080","MEAN_MOTION":13.85290807,"ECCENTRICITY":0.00048912,"INCLINATION":81.3003,"RA_OF_ASC_NODE":303.6354,"ARG_OF_PERICENTER":106.2164,"MEAN_ANOMALY":253.9532,"EPHEMERIS_TYPE":0,"CLASSIFICATION_TYPE":"U","NORAD_CAT_ID":65991,"ELEMENT_SET_NO":999,"REV_AT_EPOCH":2008,"BSTAR":0.00014476099,"MEAN_MOTION_DOT":1.76e-6,"MEAN_MOTION_DDOT":0},{"OBJECT_NAME":"SL-8 R\/B","OBJECT_ID":"1972-062B","EPOCH":"2026-03-09T21:26:24.417888","MEAN_MOTION":13.83225565,"ECCENTRICITY":0.00077089,"INCLINATION":82.9744,"RA_OF_ASC_NODE":346.172,"ARG_OF_PERICENTER":315.1656,"MEAN_ANOMALY":44.8882,"EPHEMERIS_TYPE":0,"CLASSIFICATION_TYPE":"U","NORAD_CAT_ID":6149,"ELEMENT_SET_NO":999,"REV_AT_EPOCH":70186,"BSTAR":9.0786005e-5,"MEAN_MOTION_DOT":1.15e-6,"MEAN_MOTION_DDOT":0}]
